{
  "type": "FeatureCollection",
  "features": [
    {
      "type": "Feature",
      "properties": {
        "norad_id": 66433,
        "name": "STARLINK-35457",
        "group": "last-30-days",
        "lat": 33.27669761425484,
        "lon": -166.20812698903035,
        "alt_km": 439.55012883382096,
        "timestamp": "2025-12-10T20:49:51.343647+00:00",
        "meta_object_name": "STARLINK-35457",
        "meta_object_id": "2025-259M",
        "meta_epoch": "2025-12-10T16:00:01.999584",
        "meta_mean_motion": 15.40643152,
        "meta_eccentricity": 0.0001277,
        "meta_inclination": 43,
        "meta_ra_of_asc_node": 59.7241,
        "meta_arg_of_pericenter": 278.2599,
        "meta_mean_anomaly": 170.4796,
        "meta_ephemeris_type": 0,
        "meta_classification_type": "U",
        "meta_norad_cat_id": 66433,
        "meta_element_set_no": 999,
        "meta_rev_at_epoch": 594,
        "meta_bstar": 0.0027821042,
        "meta_mean_motion_dot": 0.00117495,
        "meta_mean_motion_ddot": 0,
        "tle_line1": "1 66433U 25259M   25344.66668981  .00117495  00000+0  27821-2 0  9991",
        "tle_line2": "2 66433  43.0000  59.7241 0001277 278.2599 170.4796 15.40643152  5941"
      },
      "geometry": {
        "type": "Point",
        "coordinates": [
          -166.20812698903035,
          33.27669761425484
        ]
      }
    },
    {
      "type": "Feature",
      "properties": {
        "norad_id": 66434,
        "name": "STARLINK-35389",
        "group": "last-30-days",
        "lat": 26.597492835173703,
        "lon": -153.9681288763144,
        "alt_km": 440.70872971926474,
        "timestamp": "2025-12-10T20:49:51.343658+00:00",
        "meta_object_name": "STARLINK-35389",
        "meta_object_id": "2025-259N",
        "meta_epoch": "2025-12-10T16:00:01.999584",
        "meta_mean_motion": 15.40571521,
        "meta_eccentricity": 0.00014374,
        "meta_inclination": 42.9999,
        "meta_ra_of_asc_node": 59.6936,
        "meta_arg_of_pericenter": 268.6171,
        "meta_mean_anomaly": 192.7091,
        "meta_ephemeris_type": 0,
        "meta_classification_type": "U",
        "meta_norad_cat_id": 66434,
        "meta_element_set_no": 999,
        "meta_rev_at_epoch": 594,
        "meta_bstar": 0.0027755991,
        "meta_mean_motion_dot": 0.00116933,
        "meta_mean_motion_ddot": 0,
        "tle_line1": "1 66434U 25259N   25344.66668981  .00116933  00000+0  27756-2 0  9995",
        "tle_line2": "2 66434  42.9999  59.6936 0001437 268.6171 192.7091 15.40571521  5949"
      },
      "geometry": {
        "type": "Point",
        "coordinates": [
          -153.9681288763144,
          26.597492835173703
        ]
      }
    },
    {
      "type": "Feature",
      "properties": {
        "norad_id": 66435,
        "name": "STARLINK-35502",
        "group": "last-30-days",
        "lat": 19.099375643094884,
        "lon": -143.30913814853153,
        "alt_km": 441.6823378139834,
        "timestamp": "2025-12-10T20:49:51.343668+00:00",
        "meta_object_name": "STARLINK-35502",
        "meta_object_id": "2025-259P",
        "meta_epoch": "2025-12-10T16:00:01.999584",
        "meta_mean_motion": 15.40664191,
        "meta_eccentricity": 0.00011512,
        "meta_inclination": 43,
        "meta_ra_of_asc_node": 59.6647,
        "meta_arg_of_pericenter": 289.9843,
        "meta_mean_anomaly": 183.6388,
        "meta_ephemeris_type": 0,
        "meta_classification_type": "U",
        "meta_norad_cat_id": 66435,
        "meta_element_set_no": 999,
        "meta_rev_at_epoch": 594,
        "meta_bstar": 0.0010032076,
        "meta_mean_motion_dot": 0.00041782,
        "meta_mean_motion_ddot": 0,
        "tle_line1": "1 66435U 25259P   25344.66668981  .00041782  00000+0  10032-2 0  9994",
        "tle_line2": "2 66435  43.0000  59.6647 0001151 289.9843 183.6388 15.40664191  5943"
      },
      "geometry": {
        "type": "Point",
        "coordinates": [
          -143.30913814853153,
          19.099375643094884
        ]
      }
    },
    {
      "type": "Feature",
      "properties": {
        "norad_id": 66436,
        "name": "STARLINK-35501",
        "group": "last-30-days",
        "lat": 2.5868680226869682,
        "lon": -124.33639156737645,
        "alt_km": 443.67744478624445,
        "timestamp": "2025-12-10T20:49:51.343707+00:00",
        "meta_object_name": "STARLINK-35501",
        "meta_object_id": "2025-259Q",
        "meta_epoch": "2025-12-10T16:00:01.999584",
        "meta_mean_motion": 15.40597558,
        "meta_eccentricity": 0.00012641,
        "meta_inclination": 43,
        "meta_ra_of_asc_node": 59.6026,
        "meta_arg_of_pericenter": 271.5925,
        "meta_mean_anomaly": 226.9402,
        "meta_ephemeris_type": 0,
        "meta_classification_type": "U",
        "meta_norad_cat_id": 66436,
        "meta_element_set_no": 999,
        "meta_rev_at_epoch": 594,
        "meta_bstar": 0.0041002208,
        "meta_mean_motion_dot": 0.0017435,
        "meta_mean_motion_ddot": 0,
        "tle_line1": "1 66436U 25259Q   25344.66668981  .00174350  00000+0  41002-2 0  9994",
        "tle_line2": "2 66436  43.0000  59.6026 0001264 271.5925 226.9402 15.40597558  5948"
      },
      "geometry": {
        "type": "Point",
        "coordinates": [
          -124.33639156737645,
          2.5868680226869682
        ]
      }
    },
    {
      "type": "Feature",
      "properties": {
        "norad_id": 66437,
        "name": "STARLINK-35474",
        "group": "last-30-days",
        "lat": -5.876818603904692,
        "lon": -115.24650003651166,
        "alt_km": 444.6065066918627,
        "timestamp": "2025-12-10T20:49:51.343719+00:00",
        "meta_object_name": "STARLINK-35474",
        "meta_object_id": "2025-259R",
        "meta_epoch": "2025-12-10T16:00:01.999584",
        "meta_mean_motion": 15.40639319,
        "meta_eccentricity": 0.00016211,
        "meta_inclination": 43.0001,
        "meta_ra_of_asc_node": 59.5718,
        "meta_arg_of_pericenter": 277.6481,
        "meta_mean_anomaly": 233.3006,
        "meta_ephemeris_type": 0,
        "meta_classification_type": "U",
        "meta_norad_cat_id": 66437,
        "meta_element_set_no": 999,
        "meta_rev_at_epoch": 594,
        "meta_bstar": 0.0026506572,
        "meta_mean_motion_dot": 0.00111832,
        "meta_mean_motion_ddot": 0,
        "tle_line1": "1 66437U 25259R   25344.66668981  .00111832  00000+0  26507-2 0  9994",
        "tle_line2": "2 66437  43.0001  59.5718 0001621 277.6481 233.3006 15.40639319  5942"
      },
      "geometry": {
        "type": "Point",
        "coordinates": [
          -115.24650003651166,
          -5.876818603904692
        ]
      }
    },
    {
      "type": "Feature",
      "properties": {
        "norad_id": 66438,
        "name": "STARLINK-34681",
        "group": "last-30-days",
        "lat": -14.18468265403664,
        "lon": -105.88006320388192,
        "alt_km": 445.55035326009147,
        "timestamp": "2025-12-10T20:49:51.343729+00:00",
        "meta_object_name": "STARLINK-34681",
        "meta_object_id": "2025-259S",
        "meta_epoch": "2025-12-10T16:00:01.999584",
        "meta_mean_motion": 15.40603026,
        "meta_eccentricity": 0.00012404,
        "meta_inclination": 43.0001,
        "meta_ra_of_asc_node": 59.542,
        "meta_arg_of_pericenter": 290.5108,
        "meta_mean_anomaly": 232.8824,
        "meta_ephemeris_type": 0,
        "meta_classification_type": "U",
        "meta_norad_cat_id": 66438,
        "meta_element_set_no": 999,
        "meta_rev_at_epoch": 583,
        "meta_bstar": 0.0041723653,
        "meta_mean_motion_dot": 0.0017753,
        "meta_mean_motion_ddot": 0,
        "tle_line1": "1 66438U 25259S   25344.66668981  .00177530  00000+0  41724-2 0  9990",
        "tle_line2": "2 66438  43.0001  59.5420 0001240 290.5108 232.8824 15.40603026  5836"
      },
      "geometry": {
        "type": "Point",
        "coordinates": [
          -105.88006320388192,
          -14.18468265403664
        ]
      }
    },
    {
      "type": "Feature",
      "properties": {
        "norad_id": 66439,
        "name": "STARLINK-35327",
        "group": "last-30-days",
        "lat": 10.989476581852987,
        "lon": -133.55243557280087,
        "alt_km": 442.567567039031,
        "timestamp": "2025-12-10T20:49:51.343739+00:00",
        "meta_object_name": "STARLINK-35327",
        "meta_object_id": "2025-259T",
        "meta_epoch": "2025-12-10T16:00:01.999584",
        "meta_mean_motion": 15.40604168,
        "meta_eccentricity": 0.00010011,
        "meta_inclination": 43,
        "meta_ra_of_asc_node": 59.6356,
        "meta_arg_of_pericenter": 267.5416,
        "meta_mean_anomaly": 218.5499,
        "meta_ephemeris_type": 0,
        "meta_classification_type": "U",
        "meta_norad_cat_id": 66439,
        "meta_element_set_no": 999,
        "meta_rev_at_epoch": 594,
        "meta_bstar": 0.0034473209,
        "meta_mean_motion_dot": 0.00146023,
        "meta_mean_motion_ddot": 0,
        "tle_line1": "1 66439U 25259T   25344.66668981  .00146023  00000+0  34473-2 0  9997",
        "tle_line2": "2 66439  43.0000  59.6356 0001001 267.5416 218.5499 15.40604168  5945"
      },
      "geometry": {
        "type": "Point",
        "coordinates": [
          -133.55243557280087,
          10.989476581852987
        ]
      }
    }
  ]
}